BEESAT-4                
1 41619U 16040W   22270.11918294  .00018444  00000+0  56775-3 0  9993
2 41619  97.2060 318.1428 0010628 111.0921 249.1459 15.33639525336295
CAS-2T & KS-1Q          
1 41847U 16066G   22270.16190054  .00000684  00000+0  11372-3 0  9996
2 41847  98.5411 334.6832 0362130 265.5898  90.3843 14.38735722308977
NAYIF-1 (EO-88)         
1 42017U 17008BX  22270.12573210  .00023018  00000+0  62440-3 0  9996
2 42017  97.2592 334.9107 0003679 224.2819 135.8132 15.37617442312683
ZHUHAI-1 02 (CAS-4B)    
1 42759U 17034B   22270.89761934  .00003716  00000+0  22185-3 0  9999
2 42759  43.0172 127.7669 0010310 222.5165 260.5020 15.12556331291865
ZHUHAI-1 01 (CAS-4A)    
1 42761U 17034D   22270.86016037  .00003955  00000+0  23472-3 0  9991
2 42761  43.0166 126.6817 0010156 224.5331 250.9484 15.12637915291864
MAX VALIER SAT          
1 42778U 17036P   22270.83210686  .00008150  00000+0  29675-3 0  9997
2 42778  97.1955 308.4587 0009926 332.8395  27.2257 15.28416927292531
RADFXSAT (FOX-1B)       
1 43017U 17073E   22269.26221983  .00003209  00000+0  24324-3 0  9998
2 43017  97.6601 159.3068 0245430 217.2702 141.1263 14.82064084262046
FOX-1D (AO-92)          
1 43137U 18004AC  22270.17376639  .00013356  00000+0  44600-3 0  9990
2 43137  97.3612 344.4887 0007439  12.2190 347.9230 15.31131263261906
DIWATA-2B               
1 43678U 18084H   22270.90861850  .00000509  00000+0  55547-4 0  9992
2 43678  97.9848  45.4667 0008954 314.2265  45.8215 14.92320239213136
ES'HAIL 2               
1 43700U 18090A   22270.89677522  .00000148  00000+0  00000+0 0  9992
2 43700   0.0221 178.6411 0002193  39.3807 137.2585  1.00270728 14052
FOX-1CLIFF (AO-95)      
1 43770U 18099N   22270.14763274  .00002448  00000+0  21823-3 0  9991
2 43770  97.6122 333.8341 0012507 297.9950  62.0006 14.96858078208225
ITASAT 1                
1 43786U 18099AE  22270.13287927  .00002849  00000+0  25251-3 0  9997
2 43786  97.6143 334.7901 0013009 288.9716  71.0096 14.96942432208266
JY1SAT (JO-97)          
1 43803U 18099AX  22270.18082433  .00003144  00000+0  27399-3 0  9991
2 43803  97.6096 334.6264 0013260 286.1758  73.8004 14.97526958208293
UWE-4                   
1 43880U 18111E   22270.30707135  .00003140  00000+0  26607-3 0  9995
2 43880  97.6594 174.8206 0011751 348.9750  11.1213 14.98649440204952
NEXUS (FO-99)           
1 43937U 19003F   22270.08070390  .00012831  00000+0  40347-3 0  9994
2 43937  97.1227 299.5822 0020833 145.5279 214.7320 15.32877687205530
PSAT2 (NO-104)          
1 44354U 19036R   22264.60769923  .00099847 -40975-5  73572-3 0  9992
2 44354  28.5223 226.9788 0193775 342.2307  17.1592 15.50427783179564
JAISAT-1                
1 44419U 19038F   22270.47842575  .00011165  00000+0  53789-3 0  9996
2 44419  97.6467 241.5778 0020254 133.8706 226.4205 15.18730620178536
DUCHIFAT-3              
1 44854U 19089C   22270.19493297  .00003976  00000+0  30595-3 0  9998
2 44854  36.9645 216.9204 0009035 322.7523  37.2657 15.01669092153238
CAS-6 (TIANQIN 1)       
1 44881U 19093C   22270.74800909  .00000526  00000+0  73164-4 0  9994
2 44881  97.8872 348.4651 0014117 209.1443 150.8985 14.81827396149926
RS-44 & BREEZE-KM R/B   
1 44909U 19096E   22270.14114472  .00000046  00000+0  13127-3 0  9994
2 44909  82.5242 162.7368 0218403  81.9774 280.6046 12.79715169128564
ORBITAL FACTORY 2 (OF-2)
1 45113U 19071C   22270.32043197  .00043242  00000+0  74661-3 0  9995
2 45113  51.6354 276.3853 0007066 173.2871 186.8213 15.50537113149152
HUSKYSAT-1 (HO-107)     
1 45119U 19071J   22270.72911455  .00037127  00000+0  67919-3 0  9999
2 45119  51.6357 275.3313 0007321 171.5442 188.5671 15.48963049149199
BY70-2                  
1 45857U 20042B   22270.76279481  .00006359  00000+0  82835-3 0  9995
2 45857  97.9504 346.6755 0011653 141.0071 219.2015 14.80896565120590
SALSAT                  
1 46495U 20068K   22270.57374894  .00002959  00000+0  21307-3 0  9994
2 46495  97.7369 211.9599 0014615 294.6101  65.3602 15.04909746109543
BY70-3                  
1 46839U 20079N   22270.90251212  .00030248  00000+0  61461-3 0  9990
2 46839  97.1891 341.8853 0004120 330.5889  87.5779 15.46264537106050
RADFXSAT-2 (AO-109)     
1 47311U 21002C   22270.42193263  .00010157  00000+0  38699-3 0  9995
2 47311  60.6860 337.9898 0033821  43.4697 316.9049 15.26770816 94021
UVSQ-SAT                
1 47438U 21006AB  22270.11366055  .00007544  00000+0  38775-3 0  9997
2 47438  97.4269 327.0481 0010045 282.8954  77.1157 15.16713587 92685
DIY-1 (ARDUIQUBE)       
1 47963U 21022AH  22269.21700806  .00017308  00000+0  89400-3 0  9993
2 47963  97.5196 169.5358 0017251 137.5075 222.7496 15.16233153 82203
XW-3 (CAS-9)            
1 50466U 21131B   22270.83709902  .00000237  00000+0  91937-4 0  9994
2 50466  98.5746 348.0144 0004538 189.3397 170.7707 14.38529967 39630
TEVEL-3                 
1 50988U 22002E   22270.87497894  .00007229  00000+0  38345-3 0  9990
2 50988  97.4729 336.1756 0010813  71.5144  19.2156 15.15607595 38926
TEVEL-8                 
1 50989U 22002F   22270.88738811  .00007234  00000+0  38426-3 0  9995
2 50989  97.4741 336.2165 0010865  72.0428  39.1464 15.15554652 38922
TEVEL-5                 
1 50998U 22002Q   22270.92210970  .00007573  00000+0  39563-3 0  9990
2 50998  97.4716 336.3738 0012099  67.7608 346.4784 15.16115770 38949
TEVEL-6                 
1 50999U 22002R   22270.92220204  .00007586  00000+0  39624-3 0  9994
2 50999  97.4723 336.3734 0012142  67.9396 350.3722 15.16121287 38945
TEVEL-1                 
1 51013U 22002AF  22270.88365351  .00007177  00000+0  38101-3 0  9995
2 51013  97.4727 336.1582 0010733  73.2859  43.3510 15.15580204 38923
TEVEL-7                 
1 51062U 22002CG  22270.88913911  .00007247  00000+0  38505-3 0  9996
2 51062  97.4743 336.2027 0010759  72.2065  38.2621 15.15547809 38926
TEVEL-4                 
1 51063U 22002CH  22270.89019741  .00007262  00000+0  38596-3 0  9993
2 51063  97.4738 336.1987 0010760  71.7822  38.5951 15.15537297 38921
TEVEL-2                 
1 51069U 22002CP  22270.87611094  .00007250  00000+0  38460-3 0  9993
2 51069  97.4723 336.1616 0010714  72.8462  15.8880 15.15601074 38925
GREENCUBE               
1 53106U 22080B   22267.36993488 -.00000003  00000+0  00000+0 0  9998
2 53106  70.1616  52.0631 0008654 241.1549 118.8242  6.42557865  4675
YUZGU 9 (RS3S)          
1 53308U 98067TT  22270.84961950  .00069734  00000+0  10015-2 0  9991
2 53308  51.6401 186.7921 0002138 205.2813 154.8074 15.55457135 10660
YUZGU 7 (RS1S)          
1 53309U 98067TU  22270.84630108  .00076454  00000+0  10891-2 0  9999
2 53309  51.6397 186.7678 0001692 226.9197 133.1652 15.55639875 10613
YUZGU 11 (RS5S)         
1 53310U 98067TV  22270.84926494  .00070481  00000+0  10118-2 0  9993
2 53310  51.6400 186.7905 0001563 221.5353 138.5520 15.55464875 10647
YUZGU 12 (RS6S)         
1 53311U 98067TW  22270.84080281  .00074650  00000+0  10557-2 0  9998
2 53311  51.6395 186.7305 0002496 196.4522 163.6389 15.55846110 10669
TSIOLKOVSKY-RYAZAN 1 (*)
1 53312U 98067TX  22270.84437767  .00073374  00000+0  10457-2 0  9995
2 53312  51.6400 186.7569 0001601 235.5714 124.5126 15.55645159 10603
TSIOLKOVSKY-RYAZAN 2 (*)
1 53313U 98067TY  22270.84250074  .00073580  00000+0  10470-2 0  9994
2 53313  51.6400 186.7446 0001242 222.0494 138.0402 15.55686862 10653
YUZGU 10 (RS4S)         
1 53321U 98067TZ  22270.84943491  .00071062  00000+0  10172-2 0  9997
2 53321  51.6404 186.7934 0001936 209.9216 150.1665 15.55539473 10655
RS29S (SXC3-2110 CYCLO*)
1 53373U 22096D   22270.86438029  .00010109  00000+0  40540-3 0  9999
2 53373  97.4314 171.9641 0003327  50.0877  15.6563 15.25194348  7557
RS32S (SXC3-212 MONITO*)
1 53374U 22096E   22270.86061814  .00010222  00000+0  40848-3 0  9991
2 53374  97.4316 171.9687 0003143  43.8578  20.6666 15.25309531  7556
RS34S (SXC3-218 KUZBAS*)
1 53375U 22096F   22270.86139266  .00008891  00000+0  35655-3 0  9998
2 53375  97.4312 171.9683 0002972  44.1366  21.6660 15.25231804  7559
RS23S (SXC3-21 UTMN)    
1 53376U 22096G   22270.86089821  .00008951  00000+0  35875-3 0  9991
2 53376  97.4305 171.9687 0002991  40.4042  27.9803 15.25248682  7557
RS28S (SXC3-214 MIET-A*)
1 53377U 22096H   22270.85883606  .00008276  00000+0  33167-3 0  9996
2 53377  97.4316 171.9714 0002950  43.8133  18.8816 15.25277926  7550
RS26S (KAI-1)           
1 53378U 22096J   22270.85845193  .00007474  00000+0  30014-3 0  9993
2 53378  97.4315 171.9706 0002443  42.7133  20.0570 15.25246482  7551
RS19S (SXC3-219 ISOI)   
1 53381U 22096M   22270.91068525  .00008757  00000+0  34612-3 0  9993
2 53381  97.4311 172.0550 0002216 295.0400 130.9543 15.25727554  7564
RS21S (CUBESX-HSE-2)    
1 53383U 22096P   22270.84314589  .00007804  00000+0  30844-3 0  9996
2 53383  97.4310 171.9932 0002269 289.4344 135.7005 15.25763086  7554
RS30S (SXC3-217 SIREN)  
1 53384U 22096Q   22270.92054256  .00007676  00000+0  30350-3 0  9997
2 53384  97.4320 172.0705 0002427 286.2970 205.5484 15.25759179  7568
RS20S (GEOSCAN-EDELVEIS)
1 53385U 22096R   22270.91339854  .00010580  00000+0  41303-3 0  9995
2 53385  97.4307 172.0783 0002647 286.9293 203.3949 15.26084697  7591
RS33S (SXC3-215 VIZARD) 
1 53386U 22096S   22270.89159846  .00013040  00000+0  50256-3 0  9995
2 53386  97.4306 172.0763 0003669 291.4236 127.1171 15.26455229  7584
